M107
M84
G90
G21
G92 E0
M17
M140 S60
M104 S210
M190 S60
M109 S210
M117 正在检测AMS系统...
M620 S0
M400
G4 P3000
M621
G4 P3000
M117 正在检测限位开关...
M119
G4 P2000
M117 正在归位所有轴...
G28
G4 P2000
M117 正在测试X轴...
G1 X30 F3000
G1 X60 F4000
G1 X90 F5000
G1 X120 F6000
G1 X150 F7000
G1 X180 F8000
G1 X210 F9000
G1 X240 F10000
G1 X256 F12000
G1 X128 F15000
G4 P1000
M117 正在测试Y轴...
G1 Y30 F3000
G1 Y60 F4000
G1 Y90 F5000
G1 Y120 F6000
G1 Y150 F7000
G1 Y180 F8000
G1 Y210 F9000
G1 Y240 F10000
G1 Y256 F12000
G1 Y128 F15000
G4 P1000
M117 正在测试Z轴...
G1 Z5 F1000
G1 Z20 F2000
G1 Z40 F3000
G1 Z60 F4000
G1 Z80 F5000
G1 Z120 F6000
G1 Z160 F7000
G1 Z200 F8000
G1 Z240 F9000
G1 Z256 F10000
G1 Z5 F12000
G4 P1000
M117 正在测试多轴联动...
G1 X40 Y40 Z8 F3000
G1 X70 Y70 Z15 F4000
G1 X100 Y100 Z25 F5000
G1 X130 Y130 Z35 F6000
G1 X160 Y160 Z45 F7000
G1 X190 Y190 Z55 F8000
G1 X220 Y220 Z65 F9000
G1 X128 Y128 Z5 F12000
G4 P1000
M117 正在测试电机功能...
G1 X100 Y100 Z5 F3000
G1 X40 F500
G1 X160 F1000
G1 X40 F2000
G1 X160 F4000
G1 X40 F7000
G1 X160 F10000
G1 X100 F12000
G4 P500
G1 Y40 F500
G1 Y160 F1000
G1 Y40 F2000
G1 Y160 F4000
G1 Y40 F7000
G1 Y160 F10000
G1 Y100 F12000
G4 P500
G1 Z8 F300
G1 Z25 F600
G1 Z8 F1000
G1 Z25 F1500
G1 Z8 F2500
G1 Z25 F4000
G1 Z5 F6000
G4 P1000
M117 正在测试挤出机...
G1 X100 Y100 Z5 F3000
M104 S210
M109 S210
G92 E0
G1 E3 F100
G4 P1000
G1 E4 F150
G4 P1000
G1 E5 F200
G4 P1000
G1 E6 F250
G4 P1000
G1 E7 F300
G4 P1000
G1 E-5 F300
G4 P1000
M117 正在进行测试涂鸦...
G1 X20 Y20 Z0.2 F3000
G1 E3 F200
G1 X50 Y20 F500
G1 X50 Y50 F500
G1 X20 Y50 F500
G1 X20 Y20 F500
G1 E-2 F200
G1 Z5 F1000
G4 P500
G1 X70 Y20 Z0.2 F3000
G1 E3 F200
G1 X100 Y20 F500
G1 X100 Y50 F500
G1 X70 Y50 F500
G1 X70 Y20 F500
G1 E-2 F200
G1 Z5 F1000
G4 P500
G1 X140 Y35 Z0.2 F3000
G1 E2 F200
G1 X140 Y20 F500
G1 X140 Y50 F500
G1 E-2 F200
G1 Z5 F1000
G4 P500
G1 X125 Y35 Z0.2 F3000
G1 E2 F200
G1 X155 Y35 F500
G1 E-2 F200
G1 Z5 F1000
G4 P500
G1 X180 Y20 Z0.2 F3000
G1 E3 F200
G1 X210 Y20 F500
G1 X195 Y50 F500
G1 X180 Y20 F500
G1 E-2 F200
G1 Z5 F1000
G4 P500
M104 S0
M140 S0
G4 P2000
M117 正在测试AMS系统...
M104 S190
M109 S190
M620 S0
M400
G4 P3000
M621
G4 P1000
M620.1 X80 Y80 F6000 P0
G4 P1000
M621
G4 P500
M620.1 X120 Y120 F6000 P1
G4 P1000
M621
G4 P500
M620.1 X160 Y160 F6000 P2
G4 P1000
M621
G4 P500
M620.1 X200 Y200 F6000 P3
G4 P1000
M621
G4 P500
M620 S1
G4 P3000
M621
G4 P1000
M620 S2
G4 P3000
M621
G4 P1000
M620 S3
G4 P3000
M621
G4 P1000
M620 S0
G4 P3000
M621
G4 P2000
M104 S0
M117 正在进行最终检查...
G28
M119
G4 P1000
M117 自检程序完成
M84
